[Satellite]
VERSION=1.1
NAME=JPSS-1
NICKNAME=JPSS-1
TLE1=1 43013U 17073A   18020.90595486 -.00000036  00000-0  37063-5 0  9990
TLE2=2 43013  98.7126 321.4710 0000893  65.9680 294.1589 14.19549727  9015
